[{"OBJECT_NAME":"STARLINK-5519","OBJECT_ID":"2023-094F","EPOCH":"2026-03-09T06:30:00.034272","MEAN_MOTION":15.02538514,"ECCENTRICITY":0.00011708,"INCLINATION":43.0053,"RA_OF_ASC_NODE":32.8891,"ARG_OF_PERICENTER":155.2836,"MEAN_ANOMALY":204.8062,"EPHEMERIS_TYPE":0,"CLASSIFICATION_TYPE":"U","NORAD_CAT_ID":57223,"ELEMENT_SET_NO":999,"REV_AT_EPOCH":14705,"BSTAR":-0.00012475269,"MEAN_MOTION_DOT":-1.889e-5,"MEAN_MOTION_DDOT":0},{"OBJECT_NAME":"CZ-6A DEB","OBJECT_ID":"2022-151MR","EPOCH":"2026-03-09T04:38:57.025248","MEAN_MOTION":14.83234999,"ECCENTRICITY":0.00930298,"INCLINATION":98.7155,"RA_OF_ASC_NODE":156.563,"ARG_OF_PERICENTER":210.5568,"MEAN_ANOMALY":149.0205,"EPHEMERIS_TYPE":0,"CLASSIFICATION_TYPE":"U","NORAD_CAT_ID":54591,"ELEMENT_SET_NO":999,"REV_AT_EPOCH":10171,"BSTAR":0.0039988964,"MEAN_MOTION_DOT":0.00035363,"MEAN_MOTION_DDOT":0}]
